{
  "norad_id": 54205,
  "name": "STARLINK-5249",
  "history": [
    {
      "epoch": "2026-03-28T18:31:41.178432",
      "apogee_km": 540.5748848309586,
      "perigee_km": 538.8845732743821,
      "latitude_deg": 52.81723003618427,
      "longitude_deg": 34.612420479999855,
      "semi_major_axis_km": 6917.86672905267,
      "eccentricity": 0.00012217,
      "inclination_deg": 53.2166,
      "raan_deg": 268.1031,
      "arg_perigee_deg": 80.0392,
      "mean_anomaly_deg": 280.0738,
      "mean_motion_rev_day": 15.08844469
    }
  ]
}