{"fetched_at":"2026-03-29T16:36:15Z","count":15609,"tles":[{"name":"STARLINK-5249","line1":"1 54205U 22141BA  26087.77200438  .00001187  00000+0  92622-4 0  9991","line2":"2 54205  53.2166 268.1031 0001221  80.0392 280.0738 15.08844469188880","category":"Starlink"}]}